NORAD_CAT_ID,OBJECT_NAME,OBJECT_TYPE,EPOCH,MEAN_MOTION,ECCENTRICITY,INCLINATION,RA_OF_ASC_NODE,ARG_OF_PERICENTER,MEAN_ANOMALY,BSTAR,MEAN_MOTION_DOT,MEAN_MOTION_DDOT,TLE_LINE0,TLE_LINE1,TLE_LINE2,SEMIMAJOR_AXIS,PERIOD,APOGEE,PERIGEE,DECAYED
49767.0,STARLINK-3192,PAYLOAD,2022-12-13 12:37:50,15.08843273,0.0002225,53.2164,46.0672,40.4805,319.6353,3.4014e-05,2.53e-06,0.0,0 STARLINK-3192,1 49767U 21115AV  22347.52627582  .00000253  00000-0  34014-4 0  9994,2 49767  53.2164  46.0672 0002225  40.4805 319.6353 15.08843273 57219,6917.87,95.437,541.275,538.196,0.0
49767.0,STARLINK-3192,PAYLOAD,2022-12-13 15:48:36,15.08838143,0.0002219,53.2163,45.473,37.4637,322.6509,-4.9529e-05,-1.076e-05,0.0,0 STARLINK-3192,1 49767U 21115AV  22347.65875820 -.00001076  00000-0 -49529-4 0  9991,2 49767  53.2163  45.4730 0002219  37.4637 322.6509 15.08838143 58340,6917.886,95.438,541.286,538.216,0.0
49767.0,STARLINK-3192,PAYLOAD,2022-12-14 12:28:37,15.08843454,0.0002184,53.2173,41.607,38.801,321.3138,-8.417699999999999e-06,-4.22e-06,0.0,0 STARLINK-3192,1 49767U 21115AV  22348.51987841 -.00000422  00000-0 -84177-5 0  9997,2 49767  53.2173  41.6070 0002184  38.8010 321.3138 15.08843454 57363,6917.87,95.437,541.246,538.224,0.0
49767.0,STARLINK-3192,PAYLOAD,2022-12-14 20:25:33,15.08840599,0.0002228,53.2172,40.1199,37.308,322.8067,8.2858e-05,1.031e-05,0.0,0 STARLINK-3192,1 49767U 21115AV  22348.85107798  .00001031  00000-0  82858-4 0  9997,2 49767  53.2172  40.1199 0002228  37.3080 322.8067 15.08840599 57418,6917.879,95.438,541.285,538.202,0.0
49767.0,STARLINK-3192,PAYLOAD,2022-12-15 13:54:47,15.08846997,0.0002171,53.2174,36.8496,31.1872,328.9248,0.00014172,1.968e-05,0.0,0 STARLINK-3192,1 49767U 21115AV  22349.57971278  .00001968  00000-0  14172-3 0  9991,2 49767  53.2174  36.8496 0002171  31.1872 328.9248 15.08846997 57528,6917.859,95.437,541.226,538.222,0.0
49767.0,STARLINK-3192,PAYLOAD,2022-12-15 20:16:19,15.0884426,0.0002257,53.216,35.6599,35.6865,324.4278,0.00014571,2.032e-05,0.0,0 STARLINK-3192,1 49767U 21115AV  22349.84467404  .00002032  00000-0  14571-3 0  9998,2 49767  53.2160  35.6599 0002257  35.6865 324.4278 15.08844260 57569,6917.8669999999975,95.437,541.294,538.1709999999998,0.0
49767.0,STARLINK-3192,PAYLOAD,2022-12-16 04:13:15,15.08839263,0.0002264,53.2166,34.1723,36.7236,323.3911,4.0937e-05,3.63e-06,0.0,0 STARLINK-3192,1 49767U 21115AV  22350.17587706  .00000363  00000-0  40937-4 0  9995,2 49767  53.2166  34.1723 0002264  36.7236 323.3911 15.08839263 58728,6917.8830000000025,95.438,541.314,538.181,0.0
49767.0,STARLINK-3192,PAYLOAD,2022-12-16 12:10:11,15.08844495,0.0002298,53.2166,32.6855,35.3221,324.7923,0.00015618,2.199e-05,0.0,0 STARLINK-3192,1 49767U 21115AV  22350.50707436  .00002199  00000-0  15618-3 0  9992,2 49767  53.2166  32.6855 0002298  35.3221 324.7923 15.08844495 57666,6917.8669999999975,95.437,541.321,538.1419999999998,0.0
49767.0,STARLINK-3192,PAYLOAD,2022-12-17 12:00:58,15.08842361,0.0002331,53.2166,28.2245,35.0299,325.0846,-2.3937e-06,-3.26e-06,0.0,0 STARLINK-3192,1 49767U 21115AV  22351.50067498 -.00000326  00000-0 -23937-5 0  9997,2 49767  53.2166  28.2245 0002331  35.0299 325.0846 15.08842361 57815,6917.873000000001,95.437,541.351,538.126,0.0
49767.0,STARLINK-3192,PAYLOAD,2022-12-17 19:57:53,15.08867683,0.0002194,53.2176,26.7362,32.1996,327.913,-0.00041111,-6.829999999999999e-05,0.0,0 STARLINK-3192,1 49767U 21115AV  22351.83186694 -.00006830  00000-0 -41111-3 0  9991,2 49767  53.2176  26.7362 0002194  32.1996 327.9130 15.08867683 57864,6917.795999999999,95.436,541.179,538.143,0.0
49767.0,STARLINK-3192,PAYLOAD,2022-12-18 02:19:27,15.08836045,0.0002311,53.2183,25.549,33.8111,326.3029,-6.8022e-06,-3.97e-06,0.0,0 STARLINK-3192,1 49767U 21115AV  22352.09684304 -.00000397  00000-0 -68022-5 0  9995,2 49767  53.2183  25.5490 0002311  33.8111 326.3029 15.08836045 59016,6917.892,95.438,541.356,538.159,0.0
49767.0,STARLINK-3192,PAYLOAD,2022-12-18 11:51:46,15.08829373,0.0002486,53.2171,23.7668,23.851,336.2597,9.539e-05,1.23e-05,0.0,0 STARLINK-3192,1 49767U 21115AV  22352.49428717  .00001230  00000-0  95390-4 0  9995,2 49767  53.2171  23.7668 0002486  23.8510 336.2597 15.08829373 57963,6917.913000000001,95.438,541.498,538.058,0.0
49767.0,STARLINK-3192,PAYLOAD,2022-12-18 19:48:41,15.088373,0.0002461,53.2167,22.2794,33.0802,327.0344,2.1845e-05,5.9e-07,0.0,0 STARLINK-3192,1 49767U 21115AV  22352.82548379  .00000059  00000-0  21845-4 0  9991,2 49767  53.2167  22.2794 0002461  33.0802 327.0344 15.08837300 58016,6917.889,95.438,541.456,538.0509999999998,0.0
49767.0,STARLINK-3192,PAYLOAD,2022-12-19 11:42:33,15.08837965,0.000244,53.2165,19.3044,32.6775,327.4367,0.0001338,1.842e-05,0.0,0 STARLINK-3192,1 49767U 21115AV  22353.48788435  .00001842  00000-0  13380-3 0  9998,2 49767  53.2165  19.3044 0002440  32.6775 327.4367 15.08837965 59220,6917.887,95.438,541.44,538.064,0.0
49767.0,STARLINK-3192,PAYLOAD,2022-12-19 13:17:56,15.08839515,0.0002476,53.2165,19.0078,33.1651,326.9496,0.00017867,2.556e-05,0.0,0 STARLINK-3192,1 49767U 21115AV  22353.55412407  .00002556  00000-0  17867-3 0  9996,2 49767  53.2165  19.0078 0002476  33.1651 326.9496 15.08839515 58120,6917.882,95.438,541.46,538.034,0.0
49767.0,STARLINK-3192,PAYLOAD,2022-12-20 08:22:33,15.08852538,0.0002459,53.2163,15.4391,33.8875,326.2274,0.00031035,4.656e-05,0.0,0 STARLINK-3192,1 49767U 21115AV  22354.34899648  .00004656  00000-0  31035-3 0  9996,2 49767  53.2163  15.4391 0002459  33.8875 326.2274 15.08852538 59355,6917.842,95.437,541.408,538.006,0.0
49767.0,STARLINK-3192,PAYLOAD,2022-12-20 11:33:19,15.08851391,0.0002441,53.2165,14.8445,32.8904,327.2239,0.00027825,4.144e-05,0.0,0 STARLINK-3192,1 49767U 21115AV  22354.48147692  .00004144  00000-0  27825-3 0  9990,2 49767  53.2165  14.8445 0002441  32.8904 327.2239 15.08851391 58260,6917.846,95.437,541.399,538.0219999999998,0.0
49767.0,STARLINK-3192,PAYLOAD,2022-12-21 05:02:34,15.08838964,0.0002072,53.2168,11.5691,37.8343,322.2794,7.355199999999998e-07,-2.77e-06,0.0,0 STARLINK-3192,1 49767U 21115AV  22355.21012125 -.00000277  00000-0  73552-6 0  9999,2 49767  53.2168  11.5691 0002072  37.8343 322.2794 15.08838964 59489,6917.884,95.438,541.182,538.315,0.0
49767.0,STARLINK-3192,PAYLOAD,2022-12-21 11:24:07,15.08827038,0.0002326,53.2168,10.3837,30.5267,329.586,-0.00011381,-2.099e-05,0.0,0 STARLINK-3192,1 49767U 21115AV  22355.47508928 -.00002099  00000-0 -11381-3 0  9992,2 49767  53.2168  10.3837 0002326  30.5267 329.5860 15.08827038 59524,6917.92,95.438,541.394,538.1759999999998,0.0
49767.0,STARLINK-3192,PAYLOAD,2022-12-22 11:14:54,15.08836846,0.0002393,53.2162,5.9231,31.3466,328.7669,5.4373e-05,5.77e-06,0.0,0 STARLINK-3192,1 49767U 21115AV  22356.46868926  .00000577  00000-0  54373-4 0  9995,2 49767  53.2162   5.9231 0002393  31.3466 328.7669 15.08836846 58568,6917.89,95.438,541.41,538.1,0.0
49767.0,STARLINK-3192,PAYLOAD,2022-12-22 12:50:17,15.08838287,0.000239,53.2161,5.6255,30.9259,329.1873,8.46e-05,1.058e-05,0.0,0 STARLINK-3192,1 49767U 21115AV  22356.53492909  .00001058  00000-0  84600-4 0  9998,2 49767  53.2161   5.6255 0002390  30.9259 329.1873 15.08838287 59689,6917.886,95.438,541.404,538.097,0.0
49767.0,STARLINK-3192,PAYLOAD,2022-12-22 17:36:27,15.08840311,0.000239,53.2159,4.7336,30.5986,329.5145,0.0002883,4.303e-05,0.0,0 STARLINK-3192,1 49767U 21115AV  22356.73365039  .00004303  00000-0  28830-3 0  9991,2 49767  53.2159   4.7336 0002390  30.5986 329.5145 15.08840311 58607,6917.879,95.438,541.398,538.091,0.0
49767.0,STARLINK-3192,PAYLOAD,2022-12-22 23:57:59,15.08853548,0.0002462,53.2158,3.5438,32.1716,327.9426,0.00028053,4.181e-05,0.0,0 STARLINK-3192,1 49767U 21115AV  22356.99860513  .00004181  00000-0  28053-3 0  9997,2 49767  53.2158   3.5438 0002462  32.1716 327.9426 15.08853548 59752,6917.839,95.437,541.4069999999998,538.001,0.0
49767.0,STARLINK-3192,PAYLOAD,2022-12-23 09:30:18,15.08855131,0.0002268,53.2159,1.7596,28.6803,331.4314,0.00054689,8.43e-05,0.0,0 STARLINK-3192,1 49767U 21115AV  22357.39604711  .00008430  00000-0  54689-3 0  9993,2 49767  53.2159   1.7596 0002268  28.6803 331.4314 15.08855131 58709,6917.834,95.437,541.268,538.13,0.0
49767.0,STARLINK-3192,PAYLOAD,2022-12-24 01:24:09,15.08860824,0.0002322,53.2148,358.7857,37.8838,322.2317,0.00056073,8.652e-05,0.0,0 STARLINK-3192,1 49767U 21115AV  22358.05844212  .00008652  00000-0  56073-3 0  9994,2 49767  53.2148 358.7857 0002322  37.8838 322.2317 15.08860824 59913,6917.816999999999,95.436,541.288,538.075,0.0
49767.0,STARLINK-3192,PAYLOAD,2022-12-24 09:21:04,15.08856847,0.0002017,53.2148,357.2984,22.363000000000003,337.7449,0.00046486,7.121e-05,0.0,0 STARLINK-3192,1 49767U 21115AV  22358.38963906  .00007121  00000-0  46486-3 0  9999,2 49767  53.2148 357.2984 0002017  22.3630 337.7449 15.08856847 58857,6917.829000000002,95.436,541.089,538.299,0.0
49767.0,STARLINK-3192,PAYLOAD,2022-12-24 17:18:01,15.08841269,0.0002719,53.2148,355.8118,45.7152,314.4063,0.00013946,1.932e-05,0.0,0 STARLINK-3192,1 49767U 21115AV  22358.72084499  .00001932  00000-0  13946-3 0  9997,2 49767  53.2148 355.8118 0002719  45.7152 314.4063 15.08841269 60014,6917.877,95.437,541.622,537.861,0.0
49767.0,STARLINK-3192,PAYLOAD,2022-12-25 09:11:52,15.08835878,0.0002279,53.2154,352.8365,33.3389,326.7747,-1.4649000000000008e-05,-5.21e-06,0.0,0 STARLINK-3192,1 49767U 21115AV  22359.38324610 -.00000521  00000-0 -14649-4 0  9999,2 49767  53.2154 352.8365 0002279  33.3389 326.7747 15.08835878 59009,6917.893,95.438,541.335,538.181,0.0
49767.0,STARLINK-3192,PAYLOAD,2022-12-25 17:08:48,15.08840554,0.0002322,53.2159,351.3501,33.333,326.7808,0.00013299,1.829e-05,0.0,0 STARLINK-3192,1 49767U 21115AV  22359.71444627  .00001829  00000-0  13299-3 0  9996,2 49767  53.2159 351.3501 0002322  33.3330 326.7808 15.08840554 59055,6917.879,95.438,541.35,538.137,0.0
